CCSDS_OMM_VERS = 2.0
CREATION_DATE  = 
ORIGINATOR     = 

OBJECT_NAME    = STARLINK-36852
OBJECT_ID      = 2026-037B
CENTER_NAME    = EARTH
REF_FRAME      = TEME
TIME_SYSTEM    = UTC
MEAN_ELEMENT_THEORY = SGP/SGP4

EPOCH          = 2026-03-12T17:38:11.250816
MEAN_MOTION    = 15.82125273
ECCENTRICITY   = .0001483
INCLINATION    = 42.9979
RA_OF_ASC_NODE = 179.9043
ARG_OF_PERICENTER = 255.8157
MEAN_ANOMALY   = 104.2550

EPHEMERIS_TYPE = 0
CLASSIFICATION_TYPE = U
NORAD_CAT_ID   = 67933
ELEMENT_SET_NO = 999
REV_AT_EPOCH   = 373
BSTAR          = .14249E-2
MEAN_MOTION_DOT = .312157E-2
MEAN_MOTION_DDOT = 0

CCSDS_OMM_VERS = 2.0
CREATION_DATE  = 
ORIGINATOR     = 

OBJECT_NAME    = STARLINK-36861
OBJECT_ID      = 2026-037C
CENTER_NAME    = EARTH
REF_FRAME      = TEME
TIME_SYSTEM    = UTC
MEAN_ELEMENT_THEORY = SGP/SGP4

EPOCH          = 2026-03-12T17:37:07.450464
MEAN_MOTION    = 15.82066840
ECCENTRICITY   = .0001586
INCLINATION    = 42.9981
RA_OF_ASC_NODE = 179.8980
ARG_OF_PERICENTER = 286.5939
MEAN_ANOMALY   = 73.4758

EPHEMERIS_TYPE = 0
CLASSIFICATION_TYPE = U
NORAD_CAT_ID   = 67934
ELEMENT_SET_NO = 999
REV_AT_EPOCH   = 373
BSTAR          = .12175E-2
MEAN_MOTION_DOT = .26443E-2
MEAN_MOTION_DDOT = 0

CCSDS_OMM_VERS = 2.0
CREATION_DATE  = 
ORIGINATOR     = 

OBJECT_NAME    = STARLINK-36860
OBJECT_ID      = 2026-037D
CENTER_NAME    = EARTH
REF_FRAME      = TEME
TIME_SYSTEM    = UTC
MEAN_ELEMENT_THEORY = SGP/SGP4

EPOCH          = 2026-03-12T16:05:06.980352
MEAN_MOTION    = 15.82129669
ECCENTRICITY   = .0001713
INCLINATION    = 42.9973
RA_OF_ASC_NODE = 180.2793
ARG_OF_PERICENTER = 291.6951
MEAN_ANOMALY   = 68.3738

EPHEMERIS_TYPE = 0
CLASSIFICATION_TYPE = U
NORAD_CAT_ID   = 67935
ELEMENT_SET_NO = 999
REV_AT_EPOCH   = 372
BSTAR          = .1427E-2
MEAN_MOTION_DOT = .312717E-2
MEAN_MOTION_DDOT = 0

CCSDS_OMM_VERS = 2.0
CREATION_DATE  = 
ORIGINATOR     = 

OBJECT_NAME    = STARLINK-36848
OBJECT_ID      = 2026-037E
CENTER_NAME    = EARTH
REF_FRAME      = TEME
TIME_SYSTEM    = UTC
MEAN_ELEMENT_THEORY = SGP/SGP4

EPOCH          = 2026-03-12T16:02:57.466752
MEAN_MOTION    = 15.82125768
ECCENTRICITY   = .0001715
INCLINATION    = 42.9974
RA_OF_ASC_NODE = 180.2660
ARG_OF_PERICENTER = 280.3736
MEAN_ANOMALY   = 79.6942

EPHEMERIS_TYPE = 0
CLASSIFICATION_TYPE = U
NORAD_CAT_ID   = 67936
ELEMENT_SET_NO = 999
REV_AT_EPOCH   = 372
BSTAR          = .12924E-2
MEAN_MOTION_DOT = .282109E-2
MEAN_MOTION_DDOT = 0

CCSDS_OMM_VERS = 2.0
CREATION_DATE  = 
ORIGINATOR     = 

OBJECT_NAME    = STARLINK-36370
OBJECT_ID      = 2026-037F
CENTER_NAME    = EARTH
REF_FRAME      = TEME
TIME_SYSTEM    = UTC
MEAN_ELEMENT_THEORY = SGP/SGP4

EPOCH          = 2026-03-12T16:04:02.266752
MEAN_MOTION    = 15.82125414
ECCENTRICITY   = .0001556
INCLINATION    = 42.9975
RA_OF_ASC_NODE = 180.2734
ARG_OF_PERICENTER = 281.7452
MEAN_ANOMALY   = 78.3245

EPHEMERIS_TYPE = 0
CLASSIFICATION_TYPE = U
NORAD_CAT_ID   = 67937
ELEMENT_SET_NO = 999
REV_AT_EPOCH   = 372
BSTAR          = .13877E-2
MEAN_MOTION_DOT = .303708E-2
MEAN_MOTION_DDOT = 0

CCSDS_OMM_VERS = 2.0
CREATION_DATE  = 
ORIGINATOR     = 

OBJECT_NAME    = STARLINK-36371
OBJECT_ID      = 2026-037G
CENTER_NAME    = EARTH
REF_FRAME      = TEME
TIME_SYSTEM    = UTC
MEAN_ELEMENT_THEORY = SGP/SGP4

EPOCH          = 2026-03-12T17:32:48.806016
MEAN_MOTION    = 15.82161416
ECCENTRICITY   = .0002146
INCLINATION    = 42.9975
RA_OF_ASC_NODE = 179.8730
ARG_OF_PERICENTER = 310.9184
MEAN_ANOMALY   = 49.1502

EPHEMERIS_TYPE = 0
CLASSIFICATION_TYPE = U
NORAD_CAT_ID   = 67938
ELEMENT_SET_NO = 999
REV_AT_EPOCH   = 373
BSTAR          = .19024E-2
MEAN_MOTION_DOT = .423126E-2
MEAN_MOTION_DDOT = 0

CCSDS_OMM_VERS = 2.0
CREATION_DATE  = 
ORIGINATOR     = 

OBJECT_NAME    = STARLINK-36246
OBJECT_ID      = 2026-037H
CENTER_NAME    = EARTH
REF_FRAME      = TEME
TIME_SYSTEM    = UTC
MEAN_ELEMENT_THEORY = SGP/SGP4

EPOCH          = 2026-03-12T16:00:47.928096
MEAN_MOTION    = 15.82082913
ECCENTRICITY   = .0001664
INCLINATION    = 42.9977
RA_OF_ASC_NODE = 180.2542
ARG_OF_PERICENTER = 271.2623
MEAN_ANOMALY   = 88.8058

EPHEMERIS_TYPE = 0
CLASSIFICATION_TYPE = U
NORAD_CAT_ID   = 67939
ELEMENT_SET_NO = 999
REV_AT_EPOCH   = 372
BSTAR          = .69423E-3
MEAN_MOTION_DOT = .148647E-2
MEAN_MOTION_DDOT = 0

CCSDS_OMM_VERS = 2.0
CREATION_DATE  = 
ORIGINATOR     = 

OBJECT_NAME    = STARLINK-36907
OBJECT_ID      = 2026-037J
CENTER_NAME    = EARTH
REF_FRAME      = TEME
TIME_SYSTEM    = UTC
MEAN_ELEMENT_THEORY = SGP/SGP4

EPOCH          = 2026-03-12T15:57:34.036992
MEAN_MOTION    = 15.82135197
ECCENTRICITY   = .0001017
INCLINATION    = 42.9976
RA_OF_ASC_NODE = 180.2346
ARG_OF_PERICENTER = 294.2669
MEAN_ANOMALY   = 65.8096

EPHEMERIS_TYPE = 0
CLASSIFICATION_TYPE = U
NORAD_CAT_ID   = 67940
ELEMENT_SET_NO = 999
REV_AT_EPOCH   = 372
BSTAR          = .14789E-2
MEAN_MOTION_DOT = .324637E-2
MEAN_MOTION_DDOT = 0

CCSDS_OMM_VERS = 2.0
CREATION_DATE  = 
ORIGINATOR     = 

OBJECT_NAME    = STARLINK-36927
OBJECT_ID      = 2026-037K
CENTER_NAME    = EARTH
REF_FRAME      = TEME
TIME_SYSTEM    = UTC
MEAN_ELEMENT_THEORY = SGP/SGP4

EPOCH          = 2026-03-12T16:00:01.999584
MEAN_MOTION    = 15.81985554
ECCENTRICITY   = .0001605
INCLINATION    = 42.9980
RA_OF_ASC_NODE = 180.2060
ARG_OF_PERICENTER = 282.7070
MEAN_ANOMALY   = 95.7045

EPHEMERIS_TYPE = 0
CLASSIFICATION_TYPE = U
NORAD_CAT_ID   = 67941
ELEMENT_SET_NO = 999
REV_AT_EPOCH   = 367
BSTAR          = .16452E-3
MEAN_MOTION_DOT = .34197E-3
MEAN_MOTION_DDOT = 0

CCSDS_OMM_VERS = 2.0
CREATION_DATE  = 
ORIGINATOR     = 

OBJECT_NAME    = STARLINK-36914
OBJECT_ID      = 2026-037L
CENTER_NAME    = EARTH
REF_FRAME      = TEME
TIME_SYSTEM    = UTC
MEAN_ELEMENT_THEORY = SGP/SGP4

EPOCH          = 2026-03-12T17:30:37.983456
MEAN_MOTION    = 15.82105569
ECCENTRICITY   = .000123
INCLINATION    = 42.9973
RA_OF_ASC_NODE = 179.8608
ARG_OF_PERICENTER = 275.7142
MEAN_ANOMALY   = 84.3589

EPHEMERIS_TYPE = 0
CLASSIFICATION_TYPE = U
NORAD_CAT_ID   = 67942
ELEMENT_SET_NO = 999
REV_AT_EPOCH   = 373
BSTAR          = .11098E-2
MEAN_MOTION_DOT = .24076E-2
MEAN_MOTION_DDOT = 0

CCSDS_OMM_VERS = 2.0
CREATION_DATE  = 
ORIGINATOR     = 

OBJECT_NAME    = STARLINK-36851
OBJECT_ID      = 2026-037M
CENTER_NAME    = EARTH
REF_FRAME      = TEME
TIME_SYSTEM    = UTC
MEAN_ELEMENT_THEORY = SGP/SGP4

EPOCH          = 2026-03-12T15:58:38.955360
MEAN_MOTION    = 15.82226274
ECCENTRICITY   = .0002464
INCLINATION    = 42.9974
RA_OF_ASC_NODE = 180.2416
ARG_OF_PERICENTER = 332.1329
MEAN_ANOMALY   = 27.9410

EPHEMERIS_TYPE = 0
CLASSIFICATION_TYPE = U
NORAD_CAT_ID   = 67943
ELEMENT_SET_NO = 999
REV_AT_EPOCH   = 372
BSTAR          = .25927E-2
MEAN_MOTION_DOT = .590024E-2
MEAN_MOTION_DDOT = 0

CCSDS_OMM_VERS = 2.0
CREATION_DATE  = 
ORIGINATOR     = 

OBJECT_NAME    = STARLINK-36892
OBJECT_ID      = 2026-037N
CENTER_NAME    = EARTH
REF_FRAME      = TEME
TIME_SYSTEM    = UTC
MEAN_ELEMENT_THEORY = SGP/SGP4

EPOCH          = 2026-03-12T17:27:23.720832
MEAN_MOTION    = 15.82116203
ECCENTRICITY   = .0001363
INCLINATION    = 42.9978
RA_OF_ASC_NODE = 179.8428
ARG_OF_PERICENTER = 276.6695
MEAN_ANOMALY   = 83.4021

EPHEMERIS_TYPE = 0
CLASSIFICATION_TYPE = U
NORAD_CAT_ID   = 67944
ELEMENT_SET_NO = 999
REV_AT_EPOCH   = 373
BSTAR          = .1296E-2
MEAN_MOTION_DOT = .282778E-2
MEAN_MOTION_DDOT = 0

