STARLINK-36852          
1 67933U 26037B   26071.73485244  .00312157  00000+0  14249-2 0  9999
2 67933  42.9979 179.9043 0001483 255.8157 104.2550 15.82125273  3738
STARLINK-36861          
1 67934U 26037C   26071.73411401  .00264430  00000+0  12175-2 0  9990
2 67934  42.9981 179.8980 0001586 286.5939  73.4758 15.82066840  3735
STARLINK-36860          
1 67935U 26037D   26071.67021968  .00312717  00000+0  14270-2 0  9999
2 67935  42.9973 180.2793 0001713 291.6951  68.3738 15.82129669  3727
STARLINK-36848          
1 67936U 26037E   26071.66872068  .00282109  00000+0  12924-2 0  9999
2 67936  42.9974 180.2660 0001715 280.3736  79.6942 15.82125768  3728
STARLINK-36370          
1 67937U 26037F   26071.66947068  .00303708  00000+0  13877-2 0  9990
2 67937  42.9975 180.2734 0001556 281.7452  78.3245 15.82125414  3725
STARLINK-36371          
1 67938U 26037G   26071.73112044  .00423126  00000+0  19024-2 0  9994
2 67938  42.9975 179.8730 0002146 310.9184  49.1502 15.82161416  3734
STARLINK-36246          
1 67939U 26037H   26071.66722139  .00148647  00000+0  69423-3 0  9990
2 67939  42.9977 180.2542 0001664 271.2623  88.8058 15.82082913  3724
STARLINK-36907          
1 67940U 26037J   26071.66497728  .00324637  00000+0  14789-2 0  9994
2 67940  42.9976 180.2346 0001017 294.2669  65.8096 15.82135197  3724
STARLINK-36927          
1 67941U 26037K   26071.66668981  .00034197  00000+0  16452-3 0  9995
2 67941  42.9980 180.2060 0001605 282.7070  95.7045 15.81985554  3673
STARLINK-36914          
1 67942U 26037L   26071.72960629  .00240760  00000+0  11098-2 0  9992
2 67942  42.9973 179.8608 0001230 275.7142  84.3589 15.82105569  3739
STARLINK-36851          
1 67943U 26037M   26071.66572865  .00590024  00000+0  25927-2 0  9994
2 67943  42.9974 180.2416 0002464 332.1329  27.9410 15.82226274  3721
STARLINK-36892          
1 67944U 26037N   26071.72735788  .00282778  00000+0  12960-2 0  9994
2 67944  42.9978 179.8428 0001363 276.6695  83.4021 15.82116203  3734
